TANAGER-1               
1 60507U 24149AR  26116.98245787  .00015415  00000+0  33618-3 0  9993
2 60507  97.3450 210.9779 0007443 126.5489 233.6445 15.44300202 95132
FLOCK 4BE-29            
1 60509U 24149AT  26117.21627985  .00022505  00000+0  52098-3 0  9997
2 60509  97.3808 202.3902 0004283 118.9679 241.1998 15.42459737 94557
FLOCK 4BE-2             
1 60511U 24149AV  26117.18841632  .00059655  00000+0  11483-2 0  9991
2 60511  97.3817 203.2427 0004735 120.2447 239.9273 15.47685709 94605
FLOCK 4BE-13            
1 60512U 24149AW  26117.18765006  .00019456  00000+0  48106-3 0  9990
2 60512  97.3721 201.1247 0005543  98.7559 261.4315 15.40491833 94511
FLOCK 4BE-27            
1 60513U 24149AX  26117.18319591  .00011910  00000+0  36931-3 0  9995
2 60513  97.3829 199.0454 0005563 119.2651 240.9148 15.33552583 94327
FLOCK 4BE-9             
1 60514U 24149AY  26117.21305649  .00020150  00000+0  51885-3 0  9990
2 60514  97.3792 201.0524 0004479 120.7922 239.3765 15.39250359 94477
FLOCK 4BE-6             
1 60516U 24149BA  26117.20382529  .00016571  00000+0  44245-3 0  9997
2 60516  97.3790 200.4922 0005234 119.1160 241.0610 15.38171463 94430
FLOCK 4BE-14            
1 60517U 24149BB  26117.16627398  .00021566  00000+0  55199-3 0  9999
2 60517  97.3696 200.5520 0006182 118.9450 241.2416 15.39410147 94479
FLOCK 4BE-1             
1 60518U 24149BC  26117.16832041  .00022872  00000+0  55740-3 0  9996
2 60518  97.3781 201.6546 0005715 119.3557 240.8261 15.40897645 94511
FLOCK 4BE-28            
1 60519U 24149BD  26117.19256161  .00023570  00000+0  53372-3 0  9998
2 60519  97.3747 202.2493 0005790 114.8509 245.3341 15.43104300 94579
FLOCK 4BE-35            
1 60558U 24149CU  26116.83724970  .00134296  00000+0  20239-2 0  9992
2 60558  97.3715 201.1228 0004119 153.4042 206.7423 15.54311538 94450
FLOCK 4BE-5             
1 60559U 24149CV  26117.19927234  .00019552  00000+0  51121-3 0  9993
2 60559  97.3844 200.7686 0004839 120.2061 239.9664 15.38784147 94434
FLOCK 4BE-12            
1 60560U 24149CW  26117.17894119  .00229885  00000+0  27499-2 0  9990
2 60560  97.3675 202.4886 0004319 169.8324 190.3021 15.60210361 94594
FLOCK 4BE-3             
1 60561U 24149CX  26117.22987633  .00024135  00000+0  60597-3 0  9999
2 60561  97.3697 200.7164 0005865 114.1348 246.0512 15.39978703 94495
FLOCK 4BE-19            
1 60563U 24149CZ  26117.22874509  .00024538  00000+0  56901-3 0  9999
2 60563  97.3740 202.0189 0005725 115.6484 244.5355 15.42384270 94560
FLOCK 4G-8              
1 62613U 25009E   26116.84981196  .00012148  00000+0  43710-3 0  9999
2 62613  97.4009 199.1098 0005649 130.5153 229.6579 15.28736337 71078
